{"type": "FeatureCollection", "features": [{"type": "Feature", "properties": {"filename": "DSC00257.JPG", "camera": "v2 sony dsc-wx220 4896 3672 brown 0.85", "focal": 0.7447595407084062, "width": 4896, "height": 3672, "capture_time": 1467197388.0, "translation": [437127.93673851, 4572771.023216028, 340.66234733008145], "rotation": [2.6455161251944683, -1.6425956218128908, 0.09629867073166845]}, "geometry": {"type": "Point", "coordinates": [-81.75103126568565, 41.30394768802041, 340.66234733008145]}}, {"type": "Feature", "properties": {"filename": "DSC00275.JPG", "camera": "v2 sony dsc-wx220 4896 3672 brown 0.85", "focal": 0.7447595407084062, "width": 4896, "height": 3672, "capture_time": 1467198035.0, "translation": [436944.73315383255, 4572863.904891785, 340.087197684814], "rotation": [2.4334595397814924, 1.9246502100802074, 0.0122193043759245]}, "geometry": {"type": "Point", "coordinates": [-81.75322915015128, 41.30476997323748, 340.087197684814]}}, {"type": "Feature", "properties": {"filename": "DSC00302.JPG", "camera": "v2 sony dsc-wx220 4896 3672 brown 0.85", "focal": 0.7447595407084062, "width": 4896, "height": 3672, "capture_time": 1467198182.0, "translation": [437115.77504364296, 4572807.047065249, 340.73485388952895], "rotation": [-2.3172687031464596, -1.9383518126357193, 0.27704159856743543]}, "geometry": {"type": "Point", "coordinates": [-81.75118025365767, 41.304271206448526, 340.73485388952895]}}, {"type": "Feature", "properties": {"filename": "DSC00258.JPG", "camera": "v2 sony dsc-wx220 4896 3672 brown 0.85", "focal": 0.7447595407084062, "width": 4896, "height": 3672, "capture_time": 1467197400.0, "translation": [437106.9050187889, 4572803.246977434, 343.2995151854246], "rotation": [-2.421867213548697, -1.8254689154000783, 0.05315203717815957]}, "geometry": {"type": "Point", "coordinates": [-81.75128580847905, 41.30423628765765, 343.2995151854246]}}, {"type": "Feature", "properties": {"filename": "DSC00234.JPG", "camera": "v2 sony dsc-wx220 4896 3672 brown 0.85", "focal": 0.7447595407084062, "width": 4896, "height": 3672, "capture_time": 1467197249.0, "translation": [437023.0370490219, 4572861.977337643, 344.59199616437996], "rotation": [2.271252510448986, 2.002822409800016, 0.15508973098699266]}, "geometry": {"type": "Point", "coordinates": [-81.75229364570062, 41.3047587283721, 344.59199616437996]}}, {"type": "Feature", "properties": {"filename": "DSC00278.JPG", "camera": "v2 sony dsc-wx220 4896 3672 brown 0.85", "focal": 0.7447595407084062, "width": 4896, "height": 3672, "capture_time": 1467198048.0, "translation": [436888.34729819925, 4572723.4205718525, 339.30083879900656], "rotation": [-0.10899199116195223, 2.9892904793106365, -0.1714025784531754]}, "geometry": {"type": "Point", "coordinates": [-81.75388807942338, 41.30350022450925, 339.30083879900656]}}, {"type": "Feature", "properties": {"filename": "DSC00294.JPG", "camera": "v2 sony dsc-wx220 4896 3672 brown 0.85", "focal": 0.7447595407084062, "width": 4896, "height": 3672, "capture_time": 1467198127.0, "translation": [437106.5703187423, 4572741.749470378, 340.61214264865947], "rotation": [2.2612034266004386, -1.8961416859827087, -0.034130287455909555]}, "geometry": {"type": "Point", "coordinates": [-81.7512834484528, 41.30368235436785, 340.61214264865947]}}, {"type": "Feature", "properties": {"filename": "DSC00281.JPG", "camera": "v2 sony dsc-wx220 4896 3672 brown 0.85", "focal": 0.7447595407084062, "width": 4896, "height": 3672, "capture_time": 1467198062.0, "translation": [437036.1228746275, 4572714.936475958, 339.09700274377076], "rotation": [-2.759800991015787, 1.4521011035357905, -0.09898470661986053]}, "geometry": {"type": "Point", "coordinates": [-81.75212212264405, 41.30343535508626, 339.09700274377076]}}, {"type": "Feature", "properties": {"filename": "DSC00239.JPG", "camera": "v2 sony dsc-wx220 4896 3672 brown 0.85", "focal": 0.7447595407084062, "width": 4896, "height": 3672, "capture_time": 1467197278.0, "translation": [437019.920691591, 4572713.652156992, 342.4757927948615], "rotation": [2.5868347492006643, -1.6998433667760275, 0.12170536246013962]}, "geometry": {"type": "Point", "coordinates": [-81.75231551356244, 41.30342252258305, 342.4757927948615]}}, {"type": "Feature", "properties": {"filename": "DSC00261.JPG", "camera": "v2 sony dsc-wx220 4896 3672 brown 0.85", "focal": 0.7447595407084062, "width": 4896, "height": 3672, "capture_time": 1467197411.0, "translation": [436967.10882394173, 4572796.484294778, 343.6806740785239], "rotation": [2.503804487297188, 1.7873084139389082, 0.004323434439615004]}, "geometry": {"type": "Point", "coordinates": [-81.75295489701769, 41.30416446575294, 343.6806740785239]}}, {"type": "Feature", "properties": {"filename": "DSC00271.JPG", "camera": "v2 sony dsc-wx220 4896 3672 brown 0.85", "focal": 0.7447595407084062, "width": 4896, "height": 3672, "capture_time": 1467198019.0, "translation": [437112.94815723103, 4572868.610297072, 344.3392498855036], "rotation": [1.9954457085458626, 2.1252528842215583, 0.16275829788612672]}, "geometry": {"type": "Point", "coordinates": [-81.75122038347611, 41.304825485222615, 344.3392498855036]}}, {"type": "Feature", "properties": {"filename": "DSC00279.JPG", "camera": "v2 sony dsc-wx220 4896 3672 brown 0.85", "focal": 0.7447595407084062, "width": 4896, "height": 3672, "capture_time": 1467198054.0, "translation": [436949.03978560935, 4572714.06129891, 339.18869103329416], "rotation": [2.4998648463709845, -1.807163453068755, 0.15737601797745393]}, "geometry": {"type": "Point", "coordinates": [-81.75316217909092, 41.303420671284734, 339.18869103329416]}}, {"type": "Feature", "properties": {"filename": "DSC00282.JPG", "camera": "v2 sony dsc-wx220 4896 3672 brown 0.85", "focal": 0.7447595407084062, "width": 4896, "height": 3672, "capture_time": 1467198066.0, "translation": [437078.5574777096, 4572718.732386342, 339.7800986429717], "rotation": [2.372368510052026, -1.7711945899207353, 0.10031270944141903]}, "geometry": {"type": "Point", "coordinates": [-81.75161566318798, 41.30347285549101, 339.7800986429717]}}, {"type": "Feature", "properties": {"filename": "DSC00253.JPG", "camera": "v2 sony dsc-wx220 4896 3672 brown 0.85", "focal": 0.7447595407084062, "width": 4896, "height": 3672, "capture_time": 1467197364.0, "translation": [436977.63998780574, 4572822.648646666, 339.5013280007429], "rotation": [2.568089563052148, 1.7604095521774594, 0.12072009378199008]}, "geometry": {"type": "Point", "coordinates": [-81.75283181871741, 41.304400950369725, 339.5013280007429]}}, {"type": "Feature", "properties": {"filename": "DSC00238.JPG", "camera": "v2 sony dsc-wx220 4896 3672 brown 0.85", "focal": 0.7447595407084062, "width": 4896, "height": 3672, "capture_time": 1467197274.0, "translation": [436963.06030313857, 4572712.145509296, 340.8509211688553], "rotation": [2.4453932062209343, -1.8656444861233903, -0.25597033749239106]}, "geometry": {"type": "Point", "coordinates": [-81.7529945152617, 41.303404511421185, 340.8509211688553]}}, {"type": "Feature", "properties": {"filename": "DSC00267.JPG", "camera": "v2 sony dsc-wx220 4896 3672 brown 0.85", "focal": 0.7447595407084062, "width": 4896, "height": 3672, "capture_time": 1467197465.0, "translation": [436912.0535159228, 4572773.824829721, 346.3838373075291], "rotation": [2.4741728899946103, 1.6500539067931566, -0.05449166887780202]}, "geometry": {"type": "Point", "coordinates": [-81.7536101518845, 41.30395606888915, 346.3838373075291]}}, {"type": "Feature", "properties": {"filename": "DSC00246.JPG", "camera": "v2 sony dsc-wx220 4896 3672 brown 0.85", "focal": 0.7447595407084062, "width": 4896, "height": 3672, "capture_time": 1467197313.0, "translation": [436996.0446182851, 4572840.101933041, 343.9234146658977], "rotation": [2.017467724857412, 2.0114787244906744, 0.49526441981079755]}, "geometry": {"type": "Point", "coordinates": [-81.75261379251073, 41.30455958937862, 343.9234146658977]}}, {"type": "Feature", "properties": {"filename": "DSC00311.JPG", "camera": "v2 sony dsc-wx220 4896 3672 brown 0.85", "focal": 0.7447595407084062, "width": 4896, "height": 3672, "capture_time": 1467198254.0, "translation": [436931.45477695565, 4572772.46840488, 342.6862603406105], "rotation": [2.470525722880227, 1.8932437844906238, -0.04475897143068064]}, "geometry": {"type": "Point", "coordinates": [-81.75337827483119, 41.303945368544035, 342.6862603406105]}}, {"type": "Feature", "properties": {"filename": "DSC00264.JPG", "camera": "v2 sony dsc-wx220 4896 3672 brown 0.85", "focal": 0.7447595407084062, "width": 4896, "height": 3672, "capture_time": 1467197440.0, "translation": [437010.92896128504, 4572768.976330329, 341.25730335833197], "rotation": [-0.4369996697331635, -2.931315318639, 0.13067313541948636]}, "geometry": {"type": "Point", "coordinates": [-81.75242864176927, 41.3039201245532, 341.25730335833197]}}, {"type": "Feature", "properties": {"filename": "DSC00254.JPG", "camera": "v2 sony dsc-wx220 4896 3672 brown 0.85", "focal": 0.7447595407084062, "width": 4896, "height": 3672, "capture_time": 1467197376.0, "translation": [437001.6516240109, 4572745.652070336, 339.80351669605983], "rotation": [2.774098162568368, -1.406860005788511, 0.14971124263863375]}, "geometry": {"type": "Point", "coordinates": [-81.75253703861185, 41.30370931891575, 339.80351669605983]}}, {"type": "Feature", "properties": {"filename": "DSC00299.JPG", "camera": "v2 sony dsc-wx220 4896 3672 brown 0.85", "focal": 0.7447595407084062, "width": 4896, "height": 3672, "capture_time": 1467198164.0, "translation": [437045.139890732, 4572752.902817155, 341.83259077049394], "rotation": [2.702957168187042, -1.3431392181866568, 0.202418404854943]}, "geometry": {"type": "Point", "coordinates": [-81.75201834947778, 41.303778021043236, 341.83259077049394]}}, {"type": "Feature", "properties": {"filename": "DSC00268.JPG", "camera": "v2 sony dsc-wx220 4896 3672 brown 0.85", "focal": 0.7447595407084062, "width": 4896, "height": 3672, "capture_time": 1467198002.0, "translation": [437176.6750343758, 4572758.825857727, 342.01085020482714], "rotation": [3.0056941813007705, 0.251231256140919, 0.1444730536155667]}, "geometry": {"type": "Point", "coordinates": [-81.75044785606144, 41.30384162338943, 342.01085020482714]}}, {"type": "Feature", "properties": {"filename": "DSC00306.JPG", "camera": "v2 sony dsc-wx220 4896 3672 brown 0.85", "focal": 0.7447595407084062, "width": 4896, "height": 3672, "capture_time": 1467198207.0, "translation": [437017.2764085589, 4572751.615394738, 340.72556181876496], "rotation": [2.9036235961582513, -1.0132659080713027, 0.10975988086682127]}, "geometry": {"type": "Point", "coordinates": [-81.75235102796587, 41.30376425044919, 340.72556181876496]}}, {"type": "Feature", "properties": {"filename": "DSC00310.JPG", "camera": "v2 sony dsc-wx220 4896 3672 brown 0.85", "focal": 0.7447595407084062, "width": 4896, "height": 3672, "capture_time": 1467198250.0, "translation": [436973.17319850426, 4572765.148886165, 341.57910053164306], "rotation": [2.434925029573118, 1.8373459323362946, 0.12283134602837817]}, "geometry": {"type": "Point", "coordinates": [-81.75287921500973, 41.30388270206884, 341.57910053164306]}}, {"type": "Feature", "properties": {"filename": "DSC00291.JPG", "camera": "v2 sony dsc-wx220 4896 3672 brown 0.85", "focal": 0.7447595407084062, "width": 4896, "height": 3672, "capture_time": 1467198116.0, "translation": [436971.6638429971, 4572734.993191556, 338.9036509366681], "rotation": [2.5900587177049097, -1.6104184799251104, -0.13909579050714116]}, "geometry": {"type": "Point", "coordinates": [-81.75289411907924, 41.30361097231564, 338.9036509366681]}}, {"type": "Feature", "properties": {"filename": "DSC00232.JPG", "camera": "v2 sony dsc-wx220 4896 3672 brown 0.85", "focal": 0.7447595407084062, "width": 4896, "height": 3672, "capture_time": 1467197241.0, "translation": [437110.1393849246, 4572865.666379565, 344.3013314872782], "rotation": [-2.611362726812234, -1.6223812147210959, 0.13767968264781583]}, "geometry": {"type": "Point", "coordinates": [-81.75125362869109, 41.30479875044337, 344.3013314872782]}}, {"type": "Feature", "properties": {"filename": "DSC00307.JPG", "camera": "v2 sony dsc-wx220 4896 3672 brown 0.85", "focal": 0.7447595407084062, "width": 4896, "height": 3672, "capture_time": 1467198212.0, "translation": [437053.484544308, 4572770.462563332, 341.0723617688081], "rotation": [3.04258679151284, -0.7506302579453462, 0.17825314643431256]}, "geometry": {"type": "Point", "coordinates": [-81.75192049474431, 41.30393683254406, 341.0723617688081]}}, {"type": "Feature", "properties": {"filename": "DSC00300.JPG", "camera": "v2 sony dsc-wx220 4896 3672 brown 0.85", "focal": 0.7447595407084062, "width": 4896, "height": 3672, "capture_time": 1467198168.0, "translation": [437087.6779875977, 4572762.327119721, 342.2346176230523], "rotation": [2.4755417371076756, -1.7626862462880886, 0.06748017675052191]}, "geometry": {"type": "Point", "coordinates": [-81.75151123319277, 41.30386622393193, 342.2346176230523]}}, {"type": "Feature", "properties": {"filename": "DSC00242.JPG", "camera": "v2 sony dsc-wx220 4896 3672 brown 0.85", "focal": 0.7447595407084062, "width": 4896, "height": 3672, "capture_time": 1467197293.0, "translation": [437147.9882519914, 4572772.6615636805, 342.32014691356574], "rotation": [-3.1070126496467583, -0.35173905546468837, 0.03228067830839566]}, "geometry": {"type": "Point", "coordinates": [-81.75079193153456, 41.303964007013754, 342.32014691356574]}}, {"type": "Feature", "properties": {"filename": "DSC00249.JPG", "camera": "v2 sony dsc-wx220 4896 3672 brown 0.85", "focal": 0.7447595407084062, "width": 4896, "height": 3672, "capture_time": 1467197339.0, "translation": [437057.3939975637, 4572735.714679817, 344.3530517849239], "rotation": [-2.252446094303872, 2.179296934885088, 0.030355096188366012]}, "geometry": {"type": "Point", "coordinates": [-81.75187020352682, 41.30362416389438, 344.3530517849239]}}, {"type": "Feature", "properties": {"filename": "DSC00247.JPG", "camera": "v2 sony dsc-wx220 4896 3672 brown 0.85", "focal": 0.7447595407084062, "width": 4896, "height": 3672, "capture_time": 1467197317.0, "translation": [436953.04945647117, 4572838.939689593, 345.9480876817207], "rotation": [2.865515448829575, 1.2597524637905853, -0.2647197358077545]}, "geometry": {"type": "Point", "coordinates": [-81.75312722827611, 41.30454576210378, 345.9480876817207]}}, {"type": "Feature", "properties": {"filename": "DSC00274.JPG", "camera": "v2 sony dsc-wx220 4896 3672 brown 0.85", "focal": 0.7447595407084062, "width": 4896, "height": 3672, "capture_time": 1467198031.0, "translation": [436986.86340672674, 4572862.828526148, 340.9358928203], "rotation": [2.516871229554209, 1.8378482657842665, -0.07313804916489783]}, "geometry": {"type": "Point", "coordinates": [-81.75272581172132, 41.30476357031228, 340.9358928203]}}, {"type": "Feature", "properties": {"filename": "DSC00285.JPG", "camera": "v2 sony dsc-wx220 4896 3672 brown 0.85", "focal": 0.7447595407084062, "width": 4896, "height": 3672, "capture_time": 1467198081.0, "translation": [437147.8596651954, 4572816.931481099, 340.5976258578619], "rotation": [2.9917399308281336, 0.18460309882879508, 0.08906792976391689]}, "geometry": {"type": "Point", "coordinates": [-81.75079804125612, 41.304362735561284, 340.5976258578619]}}, {"type": "Feature", "properties": {"filename": "DSC00293.JPG", "camera": "v2 sony dsc-wx220 4896 3672 brown 0.85", "focal": 0.7447595407084062, "width": 4896, "height": 3672, "capture_time": 1467198123.0, "translation": [437064.20973326155, 4572736.537492566, 340.7061668671597], "rotation": [2.53504109916915, -1.585122876889684, 0.2372502237470157]}, "geometry": {"type": "Point", "coordinates": [-81.75178887915388, 41.303632106686, 340.7061668671597]}}, {"type": "Feature", "properties": {"filename": "DSC00272.JPG", "camera": "v2 sony dsc-wx220 4896 3672 brown 0.85", "focal": 0.7447595407084062, "width": 4896, "height": 3672, "capture_time": 1467198023.0, "translation": [437069.9907550813, 4572866.049655499, 344.13440789018847], "rotation": [2.5903015006170524, 1.5653929414502803, -0.3484251811072718]}, "geometry": {"type": "Point", "coordinates": [-81.75173322602936, 41.3047990717398, 344.13440789018847]}}, {"type": "Feature", "properties": {"filename": "DSC00269.JPG", "camera": "v2 sony dsc-wx220 4896 3672 brown 0.85", "focal": 0.7447595407084062, "width": 4896, "height": 3672, "capture_time": 1467198007.0, "translation": [437172.1361297511, 4572798.198945696, 342.7381030135105], "rotation": [3.058586911444353, 0.09607849545131669, -0.09723009982880819]}, "geometry": {"type": "Point", "coordinates": [-81.75050613680034, 41.30419590284314, 342.7381030135105]}}, {"type": "Feature", "properties": {"filename": "DSC00230.JPG", "camera": "v2 sony dsc-wx220 4896 3672 brown 0.85", "focal": 0.7447595407084062, "width": 4896, "height": 3672, "capture_time": 1467197228.0, "translation": [437173.4158750345, 4572797.865480694, 344.4313827396306], "rotation": [-3.0544156122191253, -0.015616389803493318, 0.2802330254157978]}, "geometry": {"type": "Point", "coordinates": [-81.75049081650526, 41.30419299899163, 344.4313827396306]}}, {"type": "Feature", "properties": {"filename": "DSC00284.JPG", "camera": "v2 sony dsc-wx220 4896 3672 brown 0.85", "focal": 0.7447595407084062, "width": 4896, "height": 3672, "capture_time": 1467198077.0, "translation": [437149.54513389285, 4572778.116612672, 340.161170141605], "rotation": [2.940301815564433, -0.01959673404051475, -0.1145988765577882]}, "geometry": {"type": "Point", "coordinates": [-81.75077389907844, 41.30401326186189, 340.161170141605]}}, {"type": "Feature", "properties": {"filename": "DSC00301.JPG", "camera": "v2 sony dsc-wx220 4896 3672 brown 0.85", "focal": 0.7447595407084062, "width": 4896, "height": 3672, "capture_time": 1467198171.0, "translation": [437131.59924611065, 4572769.389220283, 340.926590811206], "rotation": [2.428630353397878, -1.6126257888168034, 0.143585856061898]}, "geometry": {"type": "Point", "coordinates": [-81.75098735034825, 41.30393325606259, 340.926590811206]}}, {"type": "Feature", "properties": {"filename": "DSC00229.JPG", "camera": "v2 sony dsc-wx220 4896 3672 brown 0.85", "focal": 0.7447595407084062, "width": 4896, "height": 3672, "capture_time": 1467197224.0, "translation": [437175.1291912953, 4572756.4237909, 345.4591631985052], "rotation": [-3.0739547758053853, 0.028559635537805203, 0.15598474112473748]}, "geometry": {"type": "Point", "coordinates": [-81.75046607214844, 41.303819867622956, 345.4591631985052]}}, {"type": "Feature", "properties": {"filename": "DSC00298.JPG", "camera": "v2 sony dsc-wx220 4896 3672 brown 0.85", "focal": 0.7447595407084062, "width": 4896, "height": 3672, "capture_time": 1467198160.0, "translation": [437001.85703031585, 4572746.630149878, 341.58522535262983], "rotation": [2.469891276946579, -1.5306458353500254, -0.13807422360572436]}, "geometry": {"type": "Point", "coordinates": [-81.75253468644995, 41.30371814450236, 341.58522535262983]}}, {"type": "Feature", "properties": {"filename": "DSC00233.JPG", "camera": "v2 sony dsc-wx220 4896 3672 brown 0.85", "focal": 0.7447595407084062, "width": 4896, "height": 3672, "capture_time": 1467197245.0, "translation": [437066.52149092895, 4572869.389518547, 346.7830941132994], "rotation": [2.295367204427945, 1.9250340192919306, 0.07869388771580346]}, "geometry": {"type": "Point", "coordinates": [-81.7517750103813, 41.30482888319891, 346.7830941132994]}}, {"type": "Feature", "properties": {"filename": "DSC00280.JPG", "camera": "v2 sony dsc-wx220 4896 3672 brown 0.85", "focal": 0.7447595407084062, "width": 4896, "height": 3672, "capture_time": 1467198058.0, "translation": [436993.7631455273, 4572713.40848376, 340.3134336757843], "rotation": [2.1583093695179967, -2.1631115087835897, -0.17087115900224914]}, "geometry": {"type": "Point", "coordinates": [-81.75262792204909, 41.30341828540866, 340.3134336757843]}}, {"type": "Feature", "properties": {"filename": "DSC00283.JPG", "camera": "v2 sony dsc-wx220 4896 3672 brown 0.85", "focal": 0.7447595407084062, "width": 4896, "height": 3672, "capture_time": 1467198069.0, "translation": [437120.7419557047, 4572720.6996504115, 339.68727617355086], "rotation": [2.502929176495827, -1.7945390560944792, 0.19861976535361392]}, "geometry": {"type": "Point", "coordinates": [-81.75111200168891, 41.30349386358314, 339.68727617355086]}}, {"type": "Feature", "properties": {"filename": "DSC00241.JPG", "camera": "v2 sony dsc-wx220 4896 3672 brown 0.85", "focal": 0.7447595407084062, "width": 4896, "height": 3672, "capture_time": 1467197285.0, "translation": [437114.13381439407, 4572721.332059423, 343.1782865698079], "rotation": [2.5458850820843706, -1.789178533199842, -0.09918514888446561]}, "geometry": {"type": "Point", "coordinates": [-81.75119099683015, 41.30349904461567, 343.1782865698079]}}, {"type": "Feature", "properties": {"filename": "DSC00295.JPG", "camera": "v2 sony dsc-wx220 4896 3672 brown 0.85", "focal": 0.7447595407084062, "width": 4896, "height": 3672, "capture_time": 1467198140.0, "translation": [437060.4606764306, 4572824.21912854, 340.58577372720856], "rotation": [1.9790525794628568, 2.0657726625903963, -0.01175174628563442]}, "geometry": {"type": "Point", "coordinates": [-81.75184273070876, 41.30442156138573, 340.58577372720856]}}, {"type": "Feature", "properties": {"filename": "DSC00236.JPG", "camera": "v2 sony dsc-wx220 4896 3672 brown 0.85", "focal": 0.7447595407084062, "width": 4896, "height": 3672, "capture_time": 1467197257.0, "translation": [436936.9706266285, 4572866.213983201, 345.9106683156071], "rotation": [2.515179403918773, 1.8147699820975631, 0.15408381234791318]}, "geometry": {"type": "Point", "coordinates": [-81.7533221094166, 41.30479016440807, 345.9106683156071]}}, {"type": "Feature", "properties": {"filename": "DSC00240.JPG", "camera": "v2 sony dsc-wx220 4896 3672 brown 0.85", "focal": 0.7447595407084062, "width": 4896, "height": 3672, "capture_time": 1467197282.0, "translation": [437067.5397536138, 4572719.260015004, 343.6309355110649], "rotation": [2.612683307213275, -1.6006835536920085, 0.213927594473996]}, "geometry": {"type": "Point", "coordinates": [-81.75174731695816, 41.30347674846008, 343.6309355110649]}}, {"type": "Feature", "properties": {"filename": "DSC00255.JPG", "camera": "v2 sony dsc-wx220 4896 3672 brown 0.85", "focal": 0.7447595407084062, "width": 4896, "height": 3672, "capture_time": 1467197380.0, "translation": [437042.2885295456, 4572753.19425245, 340.7667913569745], "rotation": [2.6570779696158793, -1.492396990888053, -0.10286721869602518]}, "geometry": {"type": "Point", "coordinates": [-81.75205243735608, 41.303780423486266, 340.7667913569745]}}, {"type": "Feature", "properties": {"filename": "DSC00296.JPG", "camera": "v2 sony dsc-wx220 4896 3672 brown 0.85", "focal": 0.7447595407084062, "width": 4896, "height": 3672, "capture_time": 1467198144.0, "translation": [437018.5003190336, 4572819.14537748, 342.31768266199566], "rotation": [-2.440777280165628, -1.8838299190595726, 0.3818145983306529]}, "geometry": {"type": "Point", "coordinates": [-81.75234340043838, 41.304372587461295, 342.31768266199566]}}, {"type": "Feature", "properties": {"filename": "DSC00303.JPG", "camera": "v2 sony dsc-wx220 4896 3672 brown 0.85", "focal": 0.7447595407084062, "width": 4896, "height": 3672, "capture_time": 1467198186.0, "translation": [437072.4792062625, 4572808.195099071, 342.1674998513883], "rotation": [2.313329713152432, 2.028671270351874, -0.16455474666536082]}, "geometry": {"type": "Point", "coordinates": [-81.75169751794543, 41.304278170763276, 342.1674998513883]}}, {"type": "Feature", "properties": {"filename": "DSC00243.JPG", "camera": "v2 sony dsc-wx220 4896 3672 brown 0.85", "focal": 0.7447595407084062, "width": 4896, "height": 3672, "capture_time": 1467197298.0, "translation": [437147.083866473, 4572813.646212814, 339.7520479985763], "rotation": [-3.1349271712597213, -0.12771535625398017, -0.15487546504335303]}, "geometry": {"type": "Point", "coordinates": [-81.750806968339, 41.304333084751875, 339.7520479985763]}}, {"type": "Feature", "properties": {"filename": "DSC00276.JPG", "camera": "v2 sony dsc-wx220 4896 3672 brown 0.85", "focal": 0.7447595407084062, "width": 4896, "height": 3672, "capture_time": 1467198038.0, "translation": [436903.76971908484, 4572858.632883578, 341.43629745523907], "rotation": [-2.4849246514373307, -1.9038594988968256, 0.022468285939940727]}, "geometry": {"type": "Point", "coordinates": [-81.75371789306945, 41.30471928554581, 341.43629745523907]}}, {"type": "Feature", "properties": {"filename": "DSC00235.JPG", "camera": "v2 sony dsc-wx220 4896 3672 brown 0.85", "focal": 0.7447595407084062, "width": 4896, "height": 3672, "capture_time": 1467197253.0, "translation": [436980.5405039346, 4572863.115023435, 345.44060945638023], "rotation": [-2.66315294047226, -1.606165677433875, 0.10487189254866783]}, "geometry": {"type": "Point", "coordinates": [-81.75280136562712, 41.304765656883575, 345.44060945638023]}}, {"type": "Feature", "properties": {"filename": "DSC00288.JPG", "camera": "v2 sony dsc-wx220 4896 3672 brown 0.85", "focal": 0.7447595407084062, "width": 4896, "height": 3672, "capture_time": 1467198096.0, "translation": [436994.2469358008, 4572840.546488125, 341.94072533385787], "rotation": [2.40314543898814, 1.9121572423154183, -0.18626638588589348]}, "geometry": {"type": "Point", "coordinates": [-81.75263531099539, 41.30456345308155, 341.94072533385787]}}, {"type": "Feature", "properties": {"filename": "DSC00260.JPG", "camera": "v2 sony dsc-wx220 4896 3672 brown 0.85", "focal": 0.7447595407084062, "width": 4896, "height": 3672, "capture_time": 1467197408.0, "translation": [437011.2845790236, 4572798.284850446, 343.48084523305505], "rotation": [2.403875042574913, 1.6936392169199377, -0.16488072353729022]}, "geometry": {"type": "Point", "coordinates": [-81.75242742875622, 41.30418413368149, 343.48084523305505]}}, {"type": "Feature", "properties": {"filename": "DSC00305.JPG", "camera": "v2 sony dsc-wx220 4896 3672 brown 0.85", "focal": 0.7447595407084062, "width": 4896, "height": 3672, "capture_time": 1467198195.0, "translation": [436987.4815989052, 4572794.367433504, 343.1103548185017], "rotation": [2.4973121002711007, 1.748543856812006, -0.2584147259258935]}, "geometry": {"type": "Point", "coordinates": [-81.75271133635823, 41.304146990738424, 343.1103548185017]}}, {"type": "Feature", "properties": {"filename": "DSC00290.JPG", "camera": "v2 sony dsc-wx220 4896 3672 brown 0.85", "focal": 0.7447595407084062, "width": 4896, "height": 3672, "capture_time": 1467198110.0, "translation": [436912.8745685285, 4572745.086107723, 340.4307337829428], "rotation": [-0.27490730671621305, -2.9424075989692637, 0.0842813736581676]}, "geometry": {"type": "Point", "coordinates": [-81.75359736466002, 41.303697283954584, 340.4307337829428]}}, {"type": "Feature", "properties": {"filename": "DSC00308.JPG", "camera": "v2 sony dsc-wx220 4896 3672 brown 0.85", "focal": 0.7447595407084062, "width": 4896, "height": 3672, "capture_time": 1467198228.0, "translation": [437012.02221131156, 4572772.069379277, 339.5500960061373], "rotation": [-0.8671222924181291, -3.003057664580507, -0.021775587336210343]}, "geometry": {"type": "Point", "coordinates": [-81.75241590380824, 41.30394806895278, 339.5500960061373]}}, {"type": "Feature", "properties": {"filename": "DSC00309.JPG", "camera": "v2 sony dsc-wx220 4896 3672 brown 0.85", "focal": 0.7447595407084062, "width": 4896, "height": 3672, "capture_time": 1467198245.0, "translation": [437013.25191076996, 4572768.828676079, 340.8077874809736], "rotation": [2.440775222052837, 1.8179114136529593, -0.024857490251158725]}, "geometry": {"type": "Point", "coordinates": [-81.75240088025141, 41.30391897600055, 340.8077874809736]}}, {"type": "Feature", "properties": {"filename": "DSC00252.JPG", "camera": "v2 sony dsc-wx220 4896 3672 brown 0.85", "focal": 0.7447595407084062, "width": 4896, "height": 3672, "capture_time": 1467197360.0, "translation": [437022.76376359747, 4572819.365336003, 340.02798712318906], "rotation": [-2.6677891347493388, -1.4725187944614044, 0.22670071993656055]}, "geometry": {"type": "Point", "coordinates": [-81.75229249858279, 41.304374901457265, 340.02798712318906]}}, {"type": "Feature", "properties": {"filename": "DSC00292.JPG", "camera": "v2 sony dsc-wx220 4896 3672 brown 0.85", "focal": 0.7447595407084062, "width": 4896, "height": 3672, "capture_time": 1467198119.0, "translation": [437019.3632209832, 4572732.067532435, 340.2449878682907], "rotation": [2.2159327722028728, -2.0409839549362894, 0.058302270238165435]}, "geometry": {"type": "Point", "coordinates": [-81.75232407860683, 41.30358834606984, 340.2449878682907]}}, {"type": "Feature", "properties": {"filename": "DSC00277.JPG", "camera": "v2 sony dsc-wx220 4896 3672 brown 0.85", "focal": 0.7447595407084062, "width": 4896, "height": 3672, "capture_time": 1467198044.0, "translation": [436883.41029665346, 4572781.616427102, 339.6506257315512], "rotation": [0.3569082769088219, -3.0212882849175218, 0.02414959230539106]}, "geometry": {"type": "Point", "coordinates": [-81.75395308631589, 41.304024007242575, 339.6506257315512]}}, {"type": "Feature", "properties": {"filename": "DSC00259.JPG", "camera": "v2 sony dsc-wx220 4896 3672 brown 0.85", "focal": 0.7447595407084062, "width": 4896, "height": 3672, "capture_time": 1467197404.0, "translation": [437057.1787895602, 4572803.482860776, 344.8813402727923], "rotation": [2.384219677646485, 1.7054609851808775, 0.22239468296857431]}, "geometry": {"type": "Point", "coordinates": [-81.75187978565829, 41.30423453409455, 344.8813402727923]}}, {"type": "Feature", "properties": {"filename": "DSC00251.JPG", "camera": "v2 sony dsc-wx220 4896 3672 brown 0.85", "focal": 0.7447595407084062, "width": 4896, "height": 3672, "capture_time": 1467197357.0, "translation": [437063.66256086604, 4572824.279343254, 339.10856971782516], "rotation": [2.459455581000642, 1.8102213988423188, 0.013436981141259071]}, "geometry": {"type": "Point", "coordinates": [-81.75180449206223, 41.3044223535354, 339.10856971782516]}}, {"type": "Feature", "properties": {"filename": "DSC00237.JPG", "camera": "v2 sony dsc-wx220 4896 3672 brown 0.85", "focal": 0.7447595407084062, "width": 4896, "height": 3672, "capture_time": 1467197266.0, "translation": [436887.9544369758, 4572775.054414125, 340.9619948974133], "rotation": [-0.08299097153248554, -3.0076129325590135, 0.017467878314934123]}, "geometry": {"type": "Point", "coordinates": [-81.75389812846974, 41.30396525882012, 340.9619948974133]}}, {"type": "Feature", "properties": {"filename": "DSC00287.JPG", "camera": "v2 sony dsc-wx220 4896 3672 brown 0.85", "focal": 0.7447595407084062, "width": 4896, "height": 3672, "capture_time": 1467198092.0, "translation": [437039.8037803747, 4572843.8051011, 338.425348641059], "rotation": [2.1976139010652145, 1.9874719189584693, 0.06271633097287287]}, "geometry": {"type": "Point", "coordinates": [-81.75209149385732, 41.304596360056806, 338.425348641059]}}, {"type": "Feature", "properties": {"filename": "DSC00304.JPG", "camera": "v2 sony dsc-wx220 4896 3672 brown 0.85", "focal": 0.7447595407084062, "width": 4896, "height": 3672, "capture_time": 1467198190.0, "translation": [437028.69785666623, 4572798.991762022, 344.330101936064], "rotation": [2.1681828055216448, 1.9913810027013255, -0.10554595215371713]}, "geometry": {"type": "Point", "coordinates": [-81.75221950998913, 41.30419186022532, 344.330101936064]}}, {"type": "Feature", "properties": {"filename": "DSC00297.JPG", "camera": "v2 sony dsc-wx220 4896 3672 brown 0.85", "focal": 0.7447595407084062, "width": 4896, "height": 3672, "capture_time": 1467198147.0, "translation": [436974.77840842085, 4572818.544633139, 344.5878607557322], "rotation": [2.1302601298520307, 1.9992067390677284, 0.0010428130336506468]}, "geometry": {"type": "Point", "coordinates": [-81.75286557361841, 41.304363762040765, 344.5878607557322]}}, {"type": "Feature", "properties": {"filename": "DSC00244.JPG", "camera": "v2 sony dsc-wx220 4896 3672 brown 0.85", "focal": 0.7447595407084062, "width": 4896, "height": 3672, "capture_time": 1467197305.0, "translation": [437080.9829526358, 4572841.409813675, 341.38586047151745], "rotation": [-2.284261407841597, -2.114967169707998, 0.17430794369479508]}, "geometry": {"type": "Point", "coordinates": [-81.75159938058785, 41.30457799845943, 341.38586047151745]}}, {"type": "Feature", "properties": {"filename": "DSC00263.JPG", "camera": "v2 sony dsc-wx220 4896 3672 brown 0.85", "focal": 0.7447595407084062, "width": 4896, "height": 3672, "capture_time": 1467197426.0, "translation": [437053.4797538771, 4572771.476986963, 341.8710443065335], "rotation": [2.5825015452290057, -1.4676812078333328, -0.06183255876233862]}, "geometry": {"type": "Point", "coordinates": [-81.7519206569264, 41.30394596906862, 341.8710443065335]}}, {"type": "Feature", "properties": {"filename": "DSC00265.JPG", "camera": "v2 sony dsc-wx220 4896 3672 brown 0.85", "focal": 0.7447595407084062, "width": 4896, "height": 3672, "capture_time": 1467197457.0, "translation": [436998.0051435885, 4572766.1426541945, 343.41112550629583], "rotation": [2.5312163858024306, 1.7730775310868503, -0.12619818367920765]}, "geometry": {"type": "Point", "coordinates": [-81.75258271550972, 41.30389359251552, 343.41112550629583]}}, {"type": "Feature", "properties": {"filename": "DSC00256.JPG", "camera": "v2 sony dsc-wx220 4896 3672 brown 0.85", "focal": 0.7447595407084062, "width": 4896, "height": 3672, "capture_time": 1467197384.0, "translation": [437083.98364003235, 4572760.634901723, 340.89901046490843], "rotation": [-2.7933141756088333, 1.3846550541652904, -0.12621018768681497]}, "geometry": {"type": "Point", "coordinates": [-81.75155518490855, 41.30385069404645, 340.89901046490843]}}, {"type": "Feature", "properties": {"filename": "DSC00289.JPG", "camera": "v2 sony dsc-wx220 4896 3672 brown 0.85", "focal": 0.7447595407084062, "width": 4896, "height": 3672, "capture_time": 1467198100.0, "translation": [436952.3612699325, 4572840.1580502875, 344.3238985633061], "rotation": [2.2270572551440657, 1.755786253126724, -0.13171041158587232]}, "geometry": {"type": "Point", "coordinates": [-81.75313557459751, 41.30455668207319, 344.3238985633061]}}, {"type": "Feature", "properties": {"filename": "DSC00273.JPG", "camera": "v2 sony dsc-wx220 4896 3672 brown 0.85", "focal": 0.7447595407084062, "width": 4896, "height": 3672, "capture_time": 1467198027.0, "translation": [437029.47610231524, 4572867.242840575, 341.4223475628275], "rotation": [2.0622504503512142, 2.0045143035498665, -0.02565958143854845]}, "geometry": {"type": "Point", "coordinates": [-81.75221727916198, 41.30480665730513, 341.4223475628275]}}, {"type": "Feature", "properties": {"filename": "DSC00286.JPG", "camera": "v2 sony dsc-wx220 4896 3672 brown 0.85", "focal": 0.7447595407084062, "width": 4896, "height": 3672, "capture_time": 1467198088.0, "translation": [437086.346067751, 4572844.039317423, 340.517147189584], "rotation": [2.5347800118659145, 1.722621173494592, -0.20713739240451018]}, "geometry": {"type": "Point", "coordinates": [-81.75153559270059, 41.3046021006243, 340.517147189584]}}]}