{
"type": "FeatureCollection",
"name": "convexhull",
"features": [
{ "type": "Feature", "properties": { }, "geometry": { "type": "Polygon", "coordinates": [ [ [ 437074.884233694465365, 4572668.309215376153588 ], [ 437074.737101500213612, 4572668.29387497715652 ], [ 437074.589391975780018, 4572668.285806098021567 ], [ 437074.441464271978475, 4572668.285028358921409 ], [ 437074.293678070302121, 4572668.291543650440872 ], [ 436925.271385323314462, 4572678.547736340202391 ], [ 436925.120442619954702, 4572678.561964788474143 ], [ 436924.970411509159021, 4572678.583800865337253 ], [ 436924.821675172890536, 4572678.613188799470663 ], [ 436924.674613486102317, 4572678.650053534656763 ], [ 436924.529602046823129, 4572678.694300917908549 ], [ 436924.387011216662358, 4572678.745817940682173 ], [ 436924.247205174935516, 4572678.804473026655614 ], [ 436924.110540988564026, 4572678.870116370730102 ], [ 436923.977367700019386, 4572678.942580318078399 ], [ 436922.745933433005121, 4572679.65354922413826 ], [ 436922.607280860305764, 4572679.738695324398577 ], [ 436922.473448546777945, 4572679.831233457662165 ], [ 436922.344830173649825, 4572679.93089141510427 ], [ 436922.221804084605537, 4572680.037376041524112 ], [ 436853.229768517194316, 4572743.105612371116877 ], [ 436853.117772185534704, 4572743.213450818322599 ], [ 436853.011513086094055, 4572743.326946689747274 ], [ 436852.911276610800996, 4572743.445795156992972 ], [ 436852.817331976082642, 4572743.569677013903856 ], [ 436852.729931499517988, 4572743.698259538970888 ], [ 436852.64930992241716, 4572743.831197382882237 ], [ 436852.575683779199608, 4572743.968133499845862 ], [ 436852.509250815783162, 4572744.108700104989111 ], [ 436852.450189458671957, 4572744.252519662491977 ], [ 436852.398658335616346, 4572744.39920589979738 ], [ 436852.354795849416405, 4572744.548364846967161 ], [ 436852.318719806557056, 4572744.699595889076591 ], [ 436852.290527100500185, 4572744.852492848411202 ], [ 436852.270293451554608, 4572745.006645074114203 ], [ 436852.25807320344029, 4572745.16163854021579 ], [ 436852.253899177536368, 4572745.317056964151561 ], [ 436852.257782584463712, 4572745.472482921555638 ], [ 436852.269712994107977, 4572745.627498966641724 ], [ 436852.289658363617491, 4572745.78168875630945 ], [ 436852.317565123550594, 4572745.934638165868819 ], [ 436867.978131918702275, 4572820.733597571030259 ], [ 436868.017116939357948, 4572820.896880407817662 ], [ 436868.065174237184692, 4572821.057726957835257 ], [ 436868.122153333388269, 4572821.215633573010564 ], [ 436868.187875812873244, 4572821.370105810463428 ], [ 436913.447559203661513, 4572919.992388931103051 ], [ 436913.516671073040925, 4572920.133158924989402 ], [ 436913.59304454002995, 4572920.270125107839704 ], [ 436913.676470912992954, 4572920.402913217432797 ], [ 436913.766722228028812, 4572920.531160407699645 ], [ 436913.86355187202571, 4572920.654516241513193 ], [ 436913.966695256473031, 4572920.772643646225333 ], [ 436914.075870540400501, 4572920.885219838470221 ], [ 436914.190779400698375, 4572920.991937201470137 ], [ 436914.311107847024687, 4572921.092504127882421 ], [ 436914.436527080077212, 4572921.186645817011595 ], [ 436914.566694389795884, 4572921.274105025455356 ], [ 436914.701254091924056, 4572921.354642770253122 ], [ 436914.839838499960024, 4572921.428038978949189 ], [ 436914.98206892987946, 4572921.49409309681505 ], [ 436915.246294234297238, 4572921.608506009913981 ], [ 436915.39156770624686, 4572921.666957747191191 ], [ 436915.539693256898317, 4572921.7177495630458 ], [ 436915.690267310128547, 4572921.760743071325123 ], [ 436915.842879618750885, 4572921.795821134932339 ], [ 436915.997114382334985, 4572921.82288818154484 ], [ 436916.152551379869692, 4572921.841870464384556 ], [ 436916.30876711482415, 4572921.852716267108917 ], [ 436916.465335969056468, 4572921.855396037921309 ], [ 436916.621831362193916, 4572921.84990247618407 ], [ 436916.777826914039906, 4572921.836250550113618 ], [ 436916.932897606282495, 4572921.814477454870939 ], [ 437028.600587964523584, 4572903.151712129823864 ], [ 437028.74567785410909, 4572903.123774524778128 ], [ 437028.889216211333405, 4572903.088727045804262 ], [ 437029.030854850658216, 4572903.046654707752168 ], [ 437029.170250194903929, 4572902.997659566812217 ], [ 437081.035811620240565, 4572883.319782293401659 ], [ 437081.115364418132231, 4572883.288294959813356 ], [ 437101.419695114076603, 4572874.914930105209351 ], [ 437101.571376353676897, 4572874.847408064641058 ], [ 437101.719089802936651, 4572874.771598029881716 ], [ 437101.862383025116287, 4572874.687732202932239 ], [ 437102.000817122287117, 4572874.596067459322512 ], [ 437188.542552273662295, 4572813.781653492711484 ], [ 437188.676993074361235, 4572813.681452543474734 ], [ 437188.805625713081099, 4572813.573896961286664 ], [ 437188.928048361907713, 4572813.459322731010616 ], [ 437194.774927269027103, 4572807.672413398511708 ], [ 437194.884195296210237, 4572807.558419113978744 ], [ 437194.987313925463241, 4572807.43883338291198 ], [ 437195.083997470093891, 4572807.313987514004111 ], [ 437195.173978071601596, 4572807.184227388352156 ], [ 437195.257006441766862, 4572807.049912502989173 ], [ 437195.332852553285193, 4572806.911414971575141 ], [ 437195.401306277082767, 4572806.769118498079479 ], [ 437198.394721883290913, 4572800.103014035150409 ], [ 437198.441110549785662, 4572799.993999379687011 ], [ 437209.680685557832476, 4572772.062347462400794 ], [ 437209.731324803258758, 4572771.927204119041562 ], [ 437209.775406070577446, 4572771.78978178370744 ], [ 437209.812827345682308, 4572771.650398482568562 ], [ 437209.843502027157228, 4572771.509376781061292 ], [ 437211.166729102202225, 4572764.63368721306324 ], [ 437211.192027356824838, 4572764.481148771941662 ], [ 437211.209432685340289, 4572764.327509478665888 ], [ 437211.218898851599079, 4572764.173177468590438 ], [ 437211.220400709251408, 4572764.018562714569271 ], [ 437211.213934268685989, 4572763.864075941964984 ], [ 437211.199516707623843, 4572763.710127536207438 ], [ 437211.177186325541697, 4572763.557126452215016 ], [ 437211.147002441750374, 4572763.405479127541184 ], [ 437211.109045237943064, 4572763.255588406696916 ], [ 437211.063415545329917, 4572763.10785246361047 ], [ 437211.010234576475341, 4572762.962663750164211 ], [ 437210.949643603584263, 4572762.82040795404464 ], [ 437210.881803583004512, 4572762.681462966836989 ], [ 437210.806894727807958, 4572762.546197889372706 ], [ 437210.725116029090714, 4572762.414972045458853 ], [ 437210.636684727156535, 4572762.288134028203785 ], [ 437210.541835734678898, 4572762.16602077614516 ], [ 437210.440821012482047, 4572762.048956675454974 ], [ 437133.2011006930843, 4572677.067226360552013 ], [ 437133.076795715489425, 4572676.938403037376702 ], [ 437132.945028273621574, 4572676.817223347723484 ], [ 437132.559730442182627, 4572676.483545638620853 ], [ 437132.438335237151477, 4572676.383854652754962 ], [ 437132.31188831286272, 4572676.290654526092112 ], [ 437132.18073634582106, 4572676.204200781881809 ], [ 437132.045238912221976, 4572676.124730448238552 ], [ 437131.905767502263188, 4572676.052461408078671 ], [ 437131.762704501335975, 4572675.987591799348593 ], [ 437131.616442142054439, 4572675.930299472995102 ], [ 437131.467381428345107, 4572675.880741506814957 ], [ 437131.315931036544498, 4572675.839053773321211 ], [ 437131.162506194668822, 4572675.805350564420223 ], [ 437131.007527543813922, 4572675.779724285937846 ], [ 437107.795410089718644, 4572672.563358937390149 ], [ 437107.768225225794595, 4572672.559718667529523 ], [ 437074.884233694465365, 4572668.309215376153588 ] ] ] } }
]
}
