{
  "type": "FeatureCollection",
  "features": [
    {
      "type": "Feature",
      "geometry": {
        "type": "Point",
        "coordinates": [-56.1646, -34.90115]
      },
      "properties": {
        "class": "vehiculo",
        "confidence": 0.88,
        "altitude": 48.1
      }
    },
    {
      "type": "Feature",
      "geometry": {
        "type": "Point",
        "coordinates": [-56.16465, -34.9012]
      },
      "properties": {
        "class": "vehiculo",
        "confidence": 0.66,
        "altitude": 48.0
      }
    }
  ]
}
